CCSDS_OMM_VERS,COMMENT,CREATION_DATE,ORIGINATOR,OBJECT_NAME,OBJECT_ID,CENTER_NAME,REF_FRAME,TIME_SYSTEM,MEAN_ELEMENT_THEORY,EPOCH,MEAN_MOTION,ECCENTRICITY,INCLINATION,RA_OF_ASC_NODE,ARG_OF_PERICENTER,MEAN_ANOMALY,EPHEMERIS_TYPE,CLASSIFICATION_TYPE,NORAD_CAT_ID,ELEMENT_SET_NO,REV_AT_EPOCH,BSTAR,MEAN_MOTION_DOT,MEAN_MOTION_DDOT,SEMIMAJOR_AXIS,PERIOD,APOAPSIS,PERIAPSIS,OBJECT_TYPE,RCS_SIZE,COUNTRY_CODE,LAUNCH_DATE,SITE,DECAY_DATE,FILE,GP_ID,TLE_LINE0,TLE_LINE1,TLE_LINE2,NORAD_KEY,JCAT,DeepCat,Satcat,Piece,Active,Type,Name,LDate,Parent,Owner,State,SDate,ExpandedStatus,DDate,ODate,Period,Perigee,PF,Apogee,AF,Inc,IF,OpOrbit,SATCAT_KEY,DENSITY_SCORE
3.0,GENERATED VIA SPACE-TRACK.ORG API,2026-05-06T02:32:52,18 SPCS,ECHOSTAR 5,1999-050A,EARTH,TEME,UTC,SGP4,2026-05-05T20:55:12.000288,0.98744251,0.00042897,11.8901,36.4451,346.4109,238.6375,0,U,25913,999,9645,0.0,1.3e-07,0.0,42598.466,1458.313,36238.605,36202.057,PAYLOAD,LARGE,US,1999-09-23,AFETR,,5176277,322216727,0 ECHOSTAR 5,1 25913U 99050A   26125.87166667  .00000013  00000-0  00000-0 0  9990,2 25913  11.8901  36.4451 0004290 346.4109 238.6375  0.98744251 96455,25913,S25913,-,25913,1999-050A,P,P,Echostar V,1999 Sep 23,S25914,DISHE,US,1999 Sep 23 0630,In Earth orbit,-,2026 May  4 ,1458.308,36201, ,36238, ,11.89, ,GEO/ID,25913,1.2784036165481933
3.0,GENERATED VIA SPACE-TRACK.ORG API,2026-05-06T10:08:52,18 SPCS,SIRIUS 2 (GE-1E),1997-071A,EARTH,TEME,UTC,SGP4,2026-05-06T01:05:51.866880,0.99408394,0.00032499,11.9398,34.2697,20.0656,173.0698,0,U,25049,999,10370,0.0,-2.15e-06,0.0,42408.522,1448.57,36044.169,36016.605,PAYLOAD,LARGE,SWED,1997-11-11,FRGUI,,5176958,322265266,0 SIRIUS 2 (GE-1E),1 25049U 97071A   26126.04573920 -.00000215  00000-0  00000-0 0  9990,2 25049  11.9398  34.2697 0003250  20.0656 173.0698  0.99408394103704,25049,S25049,-,25049,1997-071A,P,P,Astra 5A,1997 Nov 12,S25052,SESS,S,1997 Nov 12 2209,In Earth orbit,-,2026 May  5 ,1448.57,36016, ,36044, ,11.94, ,GEO/ID,25049,1.2815378382816118
3.0,GENERATED VIA SPACE-TRACK.ORG API,2026-05-06T07:56:53,18 SPCS,SKYNET 4E,1999-009B,EARTH,TEME,UTC,SGP4,2026-05-05T20:12:34.130016,0.9902714,0.0002162,12.0432,9.3323,292.1137,264.0037,0,U,25639,999,5073,0.0,1.6e-07,0.0,42517.301,1454.147,36148.358,36129.973,PAYLOAD,LARGE,UK,1999-02-26,FRGUI,,5176743,322253744,0 SKYNET 4E,1 25639U 99009B   26125.84206169  .00000016  00000-0  00000+0 0  9990,2 25639  12.0432   9.3323 0002162 292.1137 264.0037  0.99027140 50734,25639,S25639,-,25639,1999-009B,P,P,Skynet 4E,1999 Feb 26,S25640,BABCK,UK,1999 Feb 26 2309,In Earth orbit,-,2026 May  3 ,1454.16,36130, ,36148, ,12.04, ,GEO/ID,25639,1.2830710153579157
3.0,GENERATED VIA SPACE-TRACK.ORG API,2026-05-05T10:20:49,18 SPCS,INTELSAT 603,1990-021A,EARTH,TEME,UTC,SGP4,2026-05-04T20:12:17.695008,0.99480971,0.00052011,13.9892,9.6473,51.7374,132.7299,0,U,20523,999,12497,0.0,2.8e-07,0.0,42387.893,1447.513,36031.805,35987.712,PAYLOAD,LARGE,ITSO,1990-03-14,AFETR,,5174649,322142763,0 INTELSAT 603,1 20523U 90021A   26124.84187147  .00000028  00000-0  00000-0 0  9999,2 20523  13.9892   9.6473 0005201  51.7374 132.7299  0.99480971124973,20523,S20523,-,20523,1990-021A,P,P,INTELSAT 603,1990 Mar 14,S20524,SESINTU,US,1990 Mar 14 2100?,In Earth orbit,-,2026 May  4 ,1447.513,35987, ,36031, ,13.99, ,GEO/ID,20523,1.2836132546261898
3.0,GENERATED VIA SPACE-TRACK.ORG API,2026-05-06T14:56:52,18 SPCS,NSTAR B,1996-007A,EARTH,TEME,UTC,SGP4,2026-05-06T12:02:23.574336,0.99263604,0.0010617,12.7239,26.1399,308.5058,209.2153,0,U,23781,999,11003,0.0,-3.11e-06,0.0,42449.751,1450.683,36116.685,36026.547,PAYLOAD,LARGE,JPN,1996-02-05,FRGUI,,5177520,322306366,0 NSTAR B,1 23781U 96007A   26126.50166174 -.00000311  00000-0  00000+0 0  9995,2 23781  12.7239  26.1399 0010617 308.5058 209.2153  0.99263604110037,23781,S23781,-,23781,1996-007A,P,P,N-Star b,1996 Feb  5,S23782,NTT,J,1996 Feb  5 0740,In Earth orbit,-,2026 May  4 ,1450.673,36025, ,36117, ,12.72, ,GEO/ID,23781,1.284219209881228
3.0,GENERATED VIA SPACE-TRACK.ORG API,2026-05-06T10:08:52,18 SPCS,INTELSAT 26 (JCSAT 4),1997-007A,EARTH,TEME,UTC,SGP4,2026-05-06T02:38:57.936192,0.98908275,0.00117506,12.2173,29.8443,296.937,250.1552,0,U,24732,999,10663,0.0,-2.09e-06,0.0,42551.358,1455.894,36223.223,36123.222,PAYLOAD,LARGE,ITSO,1997-02-17,AFETR,,5176958,322265214,0 INTELSAT 26 (JCSAT 4),1 24732U 97007A   26126.11039278 -.00000209  00000-0  00000-0 0  9991,2 24732  12.2173  29.8443 0011751 296.9370 250.1552  0.98908275106631,24732,S24732,-,24732,1997-007A,P,P,Intelsat IS-26,1997 Feb 17,S24733,SESINTU,US,1997 Feb 17 0211,In Earth orbit,-,2026 May  5 ,1455.889,36122, ,36223, ,12.22, ,GEO/ID,24732,1.2858612216451715
3.0,GENERATED VIA SPACE-TRACK.ORG API,2026-05-06T02:32:52,18 SPCS,DIRECTV 2 (DBS 2),1994-047A,EARTH,TEME,UTC,SGP4,2026-05-05T18:35:11.692032,0.98632308,0.00116079,12.8543,26.783,341.7297,190.7254,0,U,23192,999,12524,0.0,2.6e-07,0.0,42630.691,1459.968,36302.042,36203.071,PAYLOAD,LARGE,US,1994-08-03,AFETR,,5176277,322215308,0 DIRECTV 2 (DBS 2),1 23192U 94047A   26125.77444088  .00000026  00000-0  00000-0 0  9997,2 23192  12.8543  26.7830 0011608 341.7297 190.7254  0.98632308125248,23192,S23192,-,23192,1994-047A,P,P,Nimiq 4i,1994 Aug  3,S23193,TCANL,CA,1994 Aug  4 0024?,In Earth orbit,-,2026 May  4 ,1459.972,36203, ,36302, ,12.85, ,GEO/ID,23192,1.287019227737017
3.0,GENERATED VIA SPACE-TRACK.ORG API,2026-05-06T14:56:52,18 SPCS,GALAXY 7,1992-072A,EARTH,TEME,UTC,SGP4,2026-05-06T07:14:59.553024,0.99707151,0.0007412,14.4997,3.6023,37.7954,132.1463,0,U,22205,999,11646,0.0,5.5e-07,0.0,42323.766,1444.229,35977.001,35914.26,PAYLOAD,LARGE,US,1992-10-28,FRGUI,,5177469,322304234,0 GALAXY 7,1 22205U 92072A   26126.30207816  .00000055  00000-0  00000+0 0  9994,2 22205  14.4997   3.6023 0007412  37.7954 132.1463  0.99707151116467,22205,S22205,-,22205,1992-072A,P,P,Galaxy 7,1992 Oct 28,S22206,SESINTU,US,1992 Oct 28 0035,In Earth orbit,-,2026 May  4 ,1444.239,35914, ,35977, ,14.5, ,GEO/ID,22205,1.2886446802706608
3.0,GENERATED VIA SPACE-TRACK.ORG API,2026-05-06T14:56:52,18 SPCS,AFRISTAR,1998-063A,EARTH,TEME,UTC,SGP4,2026-05-06T13:23:28.104288,0.99010746,0.0001166,10.1387,50.1557,357.2452,194.1746,0,U,25515,999,10014,0.0,-1.82e-06,0.0,42521.994,1454.388,36148.817,36138.901,PAYLOAD,LARGE,US,1998-10-28,FRGUI,,5177565,322306994,0 AFRISTAR,1 25515U 98063A   26126.55796417 -.00000182  00000-0  00000+0 0  9996,2 25515  10.1387  50.1557 0001166 357.2452 194.1746  0.99010746100149,25515,S25515,-,25515,1998-063A,P,P,Spectrum 2,1998 Oct 28,S25517,CMMB,HK,1998 Oct 28 2235,In Earth orbit,-,2026 May  4 ,1454.396,36139, ,36148, ,10.13, ,GEO/ID,25515,1.2914447626350152
3.0,GENERATED VIA SPACE-TRACK.ORG API,2026-05-06T14:56:52,18 SPCS,CHINASAT 5B (SINOSAT 1),1998-044A,EARTH,TEME,UTC,SGP4,2026-05-06T11:46:34.764096,0.99197257,0.0005639,10.8789,45.6414,265.1421,305.5273,0,U,25404,999,10149,0.0,5.6e-07,0.0,42468.677,1451.653,36114.49,36066.594,PAYLOAD,LARGE,PRC,1998-07-18,XSC,,5177561,322306941,0 CHINASAT 5B (SINOSAT 1),1 25404U 98044A   26126.49068014  .00000056  00000-0  00000+0 0  9999,2 25404  10.8789  45.6414 0005639 265.1421 305.5273  0.99197257101497,25404,S25404,-,25404,1998-044A,P,P,PSN V,1998 Jul 18,S25405,PSN,ID,1998 Jul 18 0946,In Earth orbit,-,2026 May  4 ,1451.664,36066, ,36115, ,10.87, ,GEO/ID,25404,1.2920022595869554
3.0,GENERATED VIA SPACE-TRACK.ORG API,2026-05-06T14:56:52,18 SPCS,HOT BIRD 1,1995-016B,EARTH,TEME,UTC,SGP4,2026-05-06T08:58:58.383840,0.99314011,0.0002851,13.0397,23.0118,36.5676,165.4457,0,U,23537,999,11329,0.0,7.7e-07,0.0,42435.386,1449.946,36069.35,36045.153,PAYLOAD,MEDIUM,EUTE,1995-03-28,FRGUI,,5177510,322305241,0 HOT BIRD 1,1 23537U 95016B   26126.37428685  .00000077  00000-0  00000+0 0  9994,2 23537  13.0397  23.0118 0002851  36.5676 165.4457  0.99314011113295,23537,S23537,-,23537,1995-016B,P,P,Hot Bird 1,1995 Mar 28,S23539,EUTSA,F,1995 Mar 28 2334?,In Earth orbit,-,2026 May  4 ,1449.955,36045, ,36069, ,13.04, ,GEO/ID,23537,1.298234517759936
3.0,GENERATED VIA SPACE-TRACK.ORG API,2026-05-06T02:32:52,18 SPCS,EXPRESS MD1,2009-007B,EARTH,TEME,UTC,SGP4,2026-05-05T15:18:13.108608,0.99115056,0.00109545,10.0872,53.1149,347.2662,200.0047,0,U,33596,999,6265,0.0,-2.87e-06,0.0,42492.155,1452.857,36160.568,36067.472,PAYLOAD,LARGE,CIS,2009-02-11,TTMTR,,5176277,322220546,0 EXPRESS MD1,1 33596U 09007B   26125.63765172 -.00000287  00000-0  00000-0 0  9993,2 33596  10.0872  53.1149 0010954 347.2662 200.0047  0.99115056 62656,33596,S33596,-,33596,2009-007B,P,P,Ekspress MD-1,2009 Feb 11,S33598,KS,RU,2009 Feb 11 0930,In Earth orbit,-,2026 May  4 ,1452.854,36067, ,36160, ,10.08, ,GEO/ID,33596,1.3014575310631267
3.0,GENERATED VIA SPACE-TRACK.ORG API,2026-05-06T14:56:52,18 SPCS,UFO 5 (USA 111),1995-027A,EARTH,TEME,UTC,SGP4,2026-05-06T05:42:12.032064,0.98750015,0.0004233,11.9859,10.5067,348.0804,186.5677,0,U,23589,999,11258,0.0,3e-07,0.0,42596.808,1458.228,36236.705,36200.642,PAYLOAD,LARGE,US,1995-05-31,AFETR,,5177512,322305264,0 UFO 5 (USA 111),1 23589U 95027A   26126.23763926  .00000030  00000-0  00000+0 0  9997,2 23589  11.9859  10.5067 0004233 348.0804 186.5677  0.98750015112582,23589,S23589,-,23589,1995-027A,P,P,UHF F/O F5,1995 May 31,S23590,PMW146,US,1995 May 31 1554,In Earth orbit,-,2026 May  5 ,1458.23,36200, ,36236, ,11.99, ,GEO/ID,23589,1.3037473126279748
3.0,GENERATED VIA SPACE-TRACK.ORG API,2026-05-06T14:56:52,18 SPCS,THOR 1 (MARCOPOLO 2),1990-074A,EARTH,TEME,UTC,SGP4,2026-05-06T12:26:19.703904,0.99211955,0.0003537,14.5499,6.9604,285.6834,280.2308,0,U,20762,999,4579,0.0,-2.63e-06,0.0,42464.483,1451.438,36101.367,36071.328,PAYLOAD,LARGE,NOR,1990-08-18,AFETR,,5177422,322303144,0 THOR 1 (MARCOPOLO 2),1 20762U 90074A   26126.51828361 -.00000263  00000-0  00000+0 0  9999,2 20762  14.5499   6.9604 0003537 285.6834 280.2308  0.99211955 45799,20762,S20762,-,20762,1990-074A,P,P,Thor 1,1990 Aug 18,S20764,TNOR,N,1990 Aug 18 0109?,In Earth orbit,-,2026 May  4 ,1451.441,36071, ,36101, ,14.55, ,GEO/ID,20762,1.304772672228046
